sat01982
1 01982U 66008A   20046.86086645 -.00000004  00000-0  10038-4 0  9996
2 01982  97.8381 199.4126 0082265  31.9833 328.6316 14.46912814823293
